{
    "links": {
        "self": "http://www.neowsapp.com/rest/v1/neo/3734644?api_key=iIulBulltgU6a56xZRHN4H3l9WmuAYTsLGpBGhQ2"
    },
    "id": "3734644",
    "neo_reference_id": "3734644",
    "name": "(2015 VB106)",
    "designation": "2015 VB106",
    "nasa_jpl_url": "http://ssd.jpl.nasa.gov/sbdb.cgi?sstr=3734644",
    "absolute_magnitude_h": 24.2,
    "estimated_diameter": {
        "kilometers": {
            "estimated_diameter_min": 0.0384197891,
            "estimated_diameter_max": 0.0859092601
        },
        "meters": {
            "estimated_diameter_min": 38.4197891064,
            "estimated_diameter_max": 85.9092601232
        },
        "miles": {
            "estimated_diameter_min": 0.0238729428,
            "estimated_diameter_max": 0.0533815229
        },
        "feet": {
            "estimated_diameter_min": 126.0491808919,
            "estimated_diameter_max": 281.8545369825
        }
    },
    "is_potentially_hazardous_asteroid": false,
    "close_approach_data": [
        {
            "close_approach_date": "2015-11-10",
            "close_approach_date_full": "2015-Nov-10 08:41",
            "epoch_date_close_approach": 1447144860000,
            "relative_velocity": {
                "kilometers_per_second": "7.8391216662",
                "kilometers_per_hour": "28220.8379983636",
                "miles_per_hour": "17535.3312551498"
            },
            "miss_distance": {
                "astronomical": "0.107772884",
                "lunar": "41.923651876",
                "kilometers": "16122593.89015708",
                "miles": "10018115.297164504"
            },
            "orbiting_body": "Earth"
        },
        {
            "close_approach_date": "2161-11-21",
            "close_approach_date_full": "2161-Nov-21 03:58",
            "epoch_date_close_approach": 6055444680000,
            "relative_velocity": {
                "kilometers_per_second": "8.390784281",
                "kilometers_per_hour": "30206.8234115535",
                "miles_per_hour": "18769.34535814"
            },
            "miss_distance": {
                "astronomical": "0.1338963202",
                "lunar": "52.0856685578",
                "kilometers": "20030604.302757974",
                "miles": "12446440.3646250812"
            },
            "orbiting_body": "Earth"
        }
    ],
    "orbital_data": {
        "orbit_id": "6",
        "orbit_determination_date": "2017-04-06 08:30:38",
        "first_observation_date": "2015-11-13",
        "last_observation_date": "2015-12-10",
        "data_arc_in_days": 27,
        "observations_used": 32,
        "orbit_uncertainty": "7",
        "minimum_orbit_intersection": ".0998638",
        "jupiter_tisserand_invariant": "3.411",
        "epoch_osculation": "2459000.5",
        "eccentricity": ".5178311684515062",
        "semi_major_axis": "2.258614863071738",
        "inclination": "10.68698955313508",
        "ascending_node_longitude": "49.1381841983875",
        "orbital_period": "1239.828740368599",
        "perihelion_distance": "1.089033689445361",
        "perihelion_argument": "2.143272493219401",
        "aphelion_distance": "3.428196036698115",
        "perihelion_time": "2458581.465163209712",
        "mean_anomaly": "121.6720796451738",
        "mean_motion": ".2903626833920406",
        "equinox": "J2000",
        "orbit_class": {
            "orbit_class_type": "AMO",
            "orbit_class_description": "Near-Earth asteroid orbits similar to that of 1221 Amor",
            "orbit_class_range": "1.017 AU < q (perihelion) < 1.3 AU"
        }
    },
    "is_sentry_object": false
}